NORAD_CAT_ID,OBJECT_NAME,OBJECT_TYPE,EPOCH,MEAN_MOTION,ECCENTRICITY,INCLINATION,RA_OF_ASC_NODE,ARG_OF_PERICENTER,MEAN_ANOMALY,BSTAR,MEAN_MOTION_DOT,MEAN_MOTION_DDOT,TLE_LINE0,TLE_LINE1,TLE_LINE2,SEMIMAJOR_AXIS,PERIOD,APOGEE,PERIGEE,DECAYED
56770.0,STARLINK-6342,PAYLOAD,2024-04-01 03:34:15,14.98343673,0.0002961,70.0003,348.4497,267.8012,92.2808,0.00017221,1.963e-05,0.0,0 STARLINK-6342,1 56770U 23078D   24092.14878787  .00001963  00000-0  17221-3 0  9997,2 56770  70.0003 348.4497 0002961 267.8012  92.2808 14.98343673 46467,6950.151,96.106,574.074,569.958,0.0
56770.0,STARLINK-6342,PAYLOAD,2024-04-01 09:58:48,14.98345437,0.000237,70.0023,347.7753,272.1536,87.9352,-0.00016317,-2.04e-05,0.0,0 STARLINK-6342,1 56770U 23078D   24092.41583365 -.00002040  00000-0 -16317-3 0  9996,2 56770  70.0023 347.7753 0002370 272.1536  87.9352 14.98345437 46241,6950.145,96.106,573.657,570.363,0.0
56770.0,STARLINK-6342,PAYLOAD,2024-04-01 19:35:37,14.9832678,0.0002516,70.0018,346.7689,261.5601,98.5273,2.0487e-08,-9.3e-07,0.0,0 STARLINK-6342,1 56770U 23078D   24092.81640225 -.00000093  00000-0  20487-7 0  9991,2 56770  70.0018 346.7689 0002516 261.5601  98.5273 14.98326780 46564,6950.203,96.107,573.817,570.319,0.0
56770.0,STARLINK-6342,PAYLOAD,2024-04-02 02:00:09,14.98326646,0.0002748,70.0004,346.0921,270.5517,89.5327,4.7399e-05,4.73e-06,0.0,0 STARLINK-6342,1 56770U 23078D   24093.08344117  .00000473  00000-0  47399-4 0  9991,2 56770  70.0004 346.0921 0002748 270.5517  89.5327 14.98326646 46341,6950.203,96.107,573.978,570.158,0.0
56770.0,STARLINK-6342,PAYLOAD,2024-04-02 19:37:38,14.98326905,0.0002839,70.0,344.2407,267.7541,92.3293,4.1539e-05,4.03e-06,0.0,0 STARLINK-6342,1 56770U 23078D   24093.81780100  .00000403  00000-0  41539-4 0  9991,2 56770  70.0000 344.2407 0002839 267.7541  92.3293 14.98326905 46715,6950.202,96.107,574.041,570.094,0.0
56770.0,STARLINK-6342,PAYLOAD,2024-04-02 22:49:53,14.98337025,0.0002954,70.0,343.9043,262.521,97.5614,-6.9986e-06,-1.77e-06,0.0,0 STARLINK-6342,1 56770U 23078D   24093.95131469 -.00000177  00000-0 -69986-5 0  9991,2 56770  70.0000 343.9043 0002954 262.5210  97.5614 14.98337025 46473,6950.171,96.107,574.089,569.983,0.0
56770.0,STARLINK-6342,PAYLOAD,2024-04-03 10:02:50,14.98335533,0.0002706,70.0001,342.7259,278.7412,81.344,-7.1974e-05,-9.52e-06,0.0,0 STARLINK-6342,1 56770U 23078D   24094.41863779 -.00000952  00000-0 -71974-4 0  9999,2 56770  70.0001 342.7259 0002706 278.7412  81.3440 14.98335533 46546,6950.176,96.107,573.921,570.16,0.0
56770.0,STARLINK-6342,PAYLOAD,2024-04-03 22:51:54,14.98326959,0.0002872,69.9994,341.3787,269.4986,90.5844,9.2047e-05,1.005e-05,0.0,0 STARLINK-6342,1 56770U 23078D   24094.95271949  .00001005  00000-0  92047-4 0  9992,2 56770  69.9994 341.3787 0002872 269.4986  90.5844 14.98326959 46623,6950.202,96.107,574.063,570.071,0.0
56770.0,STARLINK-6342,PAYLOAD,2024-04-04 02:04:11,14.98328008,0.0002835,69.9995,341.0423,267.2374,92.8461,0.00011437,1.272e-05,0.0,0 STARLINK-6342,1 56770U 23078D   24095.08623851  .00001272  00000-0  11437-3 0  9999,2 56770  69.9995 341.0423 0002835 267.2374  92.8461 14.98328008 46902,6950.199,96.107,574.034,570.094,0.0
56770.0,STARLINK-6342,PAYLOAD,2024-04-04 10:04:51,14.98328553,0.000287,69.9994,340.2007,270.1071,89.976,8.053e-05,8.68e-06,0.0,0 STARLINK-6342,1 56770U 23078D   24095.42003923  .00000868  00000-0  80530-4 0  9990,2 56770  69.9994 340.2007 0002870 270.1071  89.9760 14.98328553 46696,6950.197,96.107,574.057,570.068,0.0
56770.0,STARLINK-6342,PAYLOAD,2024-04-04 22:53:55,14.9833457,0.0002924,69.9994,338.8542,270.4471,89.6353,7.7583e-05,8.33e-06,0.0,0 STARLINK-6342,1 56770U 23078D   24095.95411507  .00000833  00000-0  77583-4 0  9995,2 56770  69.9994 338.8542 0002924 270.4471  89.6353 14.98334570 46770,6950.179,96.107,574.076,570.012,0.0
56770.0,STARLINK-6342,PAYLOAD,2024-04-05 02:06:11,14.98335862,0.0002903,69.9993,338.5174,270.233,89.8496,8.9717e-05,9.78e-06,0.0,0 STARLINK-6342,1 56770U 23078D   24096.08763355  .00000978  00000-0  89717-4 0  9993,2 56770  69.9993 338.5174 0002903 270.2330  89.8496 14.98335862 47053,6950.175,96.107,574.057,570.022,0.0
56770.0,STARLINK-6342,PAYLOAD,2024-04-05 19:43:40,14.98330258,0.0002866,69.9993,336.6656,270.2749,89.8082,5.2861e-05,5.38e-06,0.0,0 STARLINK-6342,1 56770U 23078D   24096.82199659  .00000538  00000-0  52861-4 0  9997,2 56770  69.9993 336.6656 0002866 270.2749  89.8082 14.98330258 47166,6950.192,96.107,574.049,570.065,0.0
56770.0,STARLINK-6342,PAYLOAD,2024-04-05 21:19:48,14.98330899,0.0002833,69.9993,336.4973,270.2576,89.8258,5.5693e-05,5.72e-06,0.0,0 STARLINK-6342,1 56770U 23078D   24096.88875607  .00000572  00000-0  55693-4 0  9991,2 56770  69.9993 336.4973 0002833 270.2576  89.8258 14.98330899 46916,6950.19,96.107,574.024,570.086,0.0
56770.0,STARLINK-6342,PAYLOAD,2024-04-06 08:32:44,14.98331761,0.0002759,69.9995,335.319,269.9292,90.1551,-1.1792e-05,-2.34e-06,0.0,0 STARLINK-6342,1 56770U 23078D   24097.35607624 -.00000234  00000-0 -11792-4 0  9995,2 56770  69.9995 335.3190 0002759 269.9292  90.1551 14.98331761 46981,6950.187,96.107,573.97,570.135,0.0
56770.0,STARLINK-6342,PAYLOAD,2024-04-06 22:57:57,14.9832279,0.0002707,69.9995,333.8037,267.1037,92.9812,0.00014725,1.664e-05,0.0,0 STARLINK-6342,1 56770U 23078D   24097.95691787  .00001664  00000-0  14725-3 0  9998,2 56770  69.9995 333.8037 0002707 267.1037  92.9812 14.98322790 47077,6950.215,96.107,573.962,570.199,0.0
56770.0,STARLINK-6342,PAYLOAD,2024-04-07 08:34:45,14.98348033,0.0002793,69.9996,332.7933,274.3261,85.7579,-0.0003966,-4.824e-05,0.0,0 STARLINK-6342,1 56770U 23078D   24098.35747329 -.00004824  00000-0 -39660-3 0  9995,2 56770  69.9996 332.7933 0002793 274.3261  85.7579 14.98348033 47398,6950.137,96.106,573.943,570.061,0.0
56770.0,STARLINK-6342,PAYLOAD,2024-04-07 21:23:50,14.98339615,0.0002922,69.9992,331.4467,273.5989,86.4836,-0.00017703,-2.205e-05,0.0,0 STARLINK-6342,1 56770U 23078D   24098.89155515 -.00002205  00000-0 -17703-3 0  9999,2 56770  69.9992 331.4467 0002922 273.5989  86.4836 14.98339615 47473,6950.163,96.106,574.059,569.997,0.0
56770.0,STARLINK-6342,PAYLOAD,2024-04-07 22:59:58,14.98326495,0.0002715,69.9994,331.2785,266.4249,93.66,1.1172e-05,4e-07,0.0,0 STARLINK-6342,1 56770U 23078D   24098.95831900  .00000040  00000-0  11172-4 0  9993,2 56770  69.9994 331.2785 0002715 266.4249  93.6600 14.98326495 47220,6950.204,96.107,573.956,570.182,0.0
56770.0,STARLINK-6342,PAYLOAD,2024-04-08 00:36:06,14.98326257,0.0002747,69.9994,331.1102,267.4281,92.6564,1.1151e-05,4e-07,0.0,0 STARLINK-6342,1 56770U 23078D   24099.02507931  .00000040  00000-0  11151-4 0  9993,2 56770  69.9994 331.1102 0002747 267.4281  92.6564 14.98326257 47497,6950.204,96.107,573.979,570.16,0.0
56770.0,STARLINK-6342,PAYLOAD,2024-04-08 08:36:47,14.98326296,0.0002778,69.9992,330.2688,263.571,96.5132,0.00011558,1.286e-05,0.0,0 STARLINK-6342,1 56770U 23078D   24099.35887735  .00001286  00000-0  11558-3 0  9995,2 56770  69.9992 330.2688 0002778 263.5710  96.5132 14.98326296 47286,6950.204,96.107,574.0,570.139,0.0
56770.0,STARLINK-6342,PAYLOAD,2024-04-08 23:01:59,14.98333131,0.0002945,69.9989,328.7538,269.3272,90.755,0.00013053,1.465e-05,0.0,0 STARLINK-6342,1 56770U 23078D   24099.95971131  .00001465  00000-0  13053-3 0  9996,2 56770  69.9989 328.7538 0002945 269.3272  90.7550 14.98333131 47377,6950.183,96.107,574.095,570.001,0.0
56770.0,STARLINK-6342,PAYLOAD,2024-04-09 02:14:15,14.98334045,0.0002935,69.9989,328.4172,269.2639,90.8184,0.0001381,1.555e-05,0.0,0 STARLINK-6342,1 56770U 23078D   24100.09323046  .00001555  00000-0  13810-3 0  9991,2 56770  69.9989 328.4172 0002935 269.2639  90.8184 14.98334045 47653,6950.18,96.107,574.085,570.006,0.0
56770.0,STARLINK-6342,PAYLOAD,2024-04-09 08:38:47,14.98333741,0.0002837,69.9992,327.7439,265.9587,94.1247,-3.8731e-05,-5.55e-06,0.0,0 STARLINK-6342,1 56770U 23078D   24100.36027480 -.00000555  00000-0 -38731-4 0  9995,2 56770  69.9992 327.7439 0002837 265.9587  94.1247 14.98333741 47436,6950.181,96.107,574.018,570.075,0.0
56770.0,STARLINK-6342,PAYLOAD,2024-04-10 08:40:48,14.98355171,0.0002864,69.9992,325.2187,267.2517,92.8314,-0.00040443,-4.918e-05,0.0,0 STARLINK-6342,1 56770U 23078D   24101.36166842 -.00004918  00000-0 -40443-3 0  9991,2 56770  69.9992 325.2187 0002864 267.2517  92.8314 14.98355171 47843,6950.115,96.105,573.971,569.99,0.0
56770.0,STARLINK-6342,PAYLOAD,2024-04-10 21:29:52,14.98334504,0.00027,69.9993,323.8713,267.6909,92.3941,7.0498e-05,7.48e-06,0.0,0 STARLINK-6342,1 56770U 23078D   24101.89575132  .00000748  00000-0  70498-4 0  9994,2 56770  69.9993 323.8713 0002700 267.6909  92.3941 14.98334504 47928,6950.179,96.107,573.921,570.167,0.0
56770.0,STARLINK-6342,PAYLOAD,2024-04-10 23:06:01,14.98333177,0.0002808,69.9992,323.7033,268.3042,91.7795,2.9255e-05,2.56e-06,0.0,0 STARLINK-6342,1 56770U 23078D   24101.96251310  .00000256  00000-0  29255-4 0  9990,2 56770  69.9992 323.7033 0002808 268.3042  91.7795 14.98333177 47673,6950.183,96.107,574.0,570.096,0.0
56770.0,STARLINK-6342,PAYLOAD,2024-04-11 00:42:09,14.983329,0.0002818,69.9991,323.5349,268.4046,91.679,2.313e-05,1.83e-06,0.0,0 STARLINK-6342,1 56770U 23078D   24102.02927330  .00000183  00000-0  23130-4 0  9995,2 56770  69.9991 323.5349 0002818 268.4046  91.6790 14.98332900 47684,6950.184,96.107,574.007,570.09,0.0
56770.0,STARLINK-6342,PAYLOAD,2024-04-11 21:31:54,14.98331191,0.0002954,69.9986,321.3467,268.3121,91.77,3.9877e-05,3.83e-06,0.0,0 STARLINK-6342,1 56770U 23078D   24102.89715301  .00000383  00000-0  39877-4 0  9990,2 56770  69.9986 321.3467 0002954 268.3121  91.7700 14.98331191 48076,6950.189,96.107,574.107,570.001,0.0
56770.0,STARLINK-6342,PAYLOAD,2024-04-12 00:44:10,14.98331153,0.0002969,69.9987,321.0101,268.4167,91.6652,3.9744e-05,3.81e-06,0.0,0 STARLINK-6342,1 56770U 23078D   24103.03067293  .00000381  00000-0  39744-4 0  9998,2 56770  69.9987 321.0101 0002969 268.4167  91.6652 14.98331153 47832,6950.189,96.107,574.118,569.991,0.0
